[{"OBJECT_NAME":"STARLINK-32494","OBJECT_ID":"2024-216X","EPOCH":"2026-03-09T13:20:58.284096","MEAN_MOTION":15.27593993,"ECCENTRICITY":0.00015083,"INCLINATION":42.9985,"RA_OF_ASC_NODE":264.1302,"ARG_OF_PERICENTER":260.6678,"MEAN_ANOMALY":99.4003,"EPHEMERIS_TYPE":0,"CLASSIFICATION_TYPE":"U","NORAD_CAT_ID":62053,"ELEMENT_SET_NO":999,"REV_AT_EPOCH":7377,"BSTAR":0.0011690903,"MEAN_MOTION_DOT":0.00032063,"MEAN_MOTION_DDOT":0},{"OBJECT_NAME":"TEVEL2-4","OBJECT_ID":"2025-052D","EPOCH":"2026-03-09T16:39:37.129536","MEAN_MOTION":15.30925813,"ECCENTRICITY":0.0004733,"INCLINATION":97.4009,"RA_OF_ASC_NODE":325.1237,"ARG_OF_PERICENTER":95.3468,"MEAN_ANOMALY":264.8313,"EPHEMERIS_TYPE":0,"CLASSIFICATION_TYPE":"U","NORAD_CAT_ID":63213,"ELEMENT_SET_NO":999,"REV_AT_EPOCH":5487,"BSTAR":0.00070362503,"MEAN_MOTION_DOT":0.0002099,"MEAN_MOTION_DDOT":0}]
